KUIPER-00008            
1 63724U 25088A   26193.19354064  .00000755  00000+0  12808-3 0  9996
2 63724  51.9009 257.4537 0000682 115.2596 244.8437 14.79929524 66484
KUIPER-00009            
1 63725U 25088B   26193.41104254  .00001853  00000+0  27202-3 0  9990
2 63725  51.9022 274.1233 0000439  95.6781 264.4231 14.79931642 66266
KUIPER-00010            
1 63726U 25088C   26193.63789479  .00000327  00000+0  71955-4 0  9993
2 63726  51.9016 250.5916 0000435  64.0990 296.0017 14.79930025 66238
KUIPER-00011            
1 63727U 25088D   26193.59603067  .00000381  00000+0  78941-4 0  9999
2 63727  51.9050 258.3274 0000767 313.2819  46.8079 14.79930793 66250
KUIPER-00012            
1 63728U 25088E   26193.64597481  .00000507  00000+0  95550-4 0  9993
2 63728  51.9008 243.0391 0000427  94.3989 265.7022 14.79933606 66428
KUIPER-00013            
1 63729U 25088F   26193.64469867  .00000324  00000+0  71541-4 0  9991
2 63729  51.9017 275.5643 0000478 104.7931 255.3085 14.79929952 66072
KUIPER-00014            
1 63730U 25088G   26193.54337744  .00000391  00000+0  80333-4 0  9993
2 63730  51.9020 275.9553 0000510  96.4445 263.6576 14.79927350 65870
KUIPER-00015            
1 63731U 25088H   26193.56636303  .00000202  00000+0  55419-4 0  9997
2 63731  51.9007 285.9162 0000365 103.9387 256.1615 14.79939784 66191
KUIPER-00016            
1 63732U 25088J   26192.25762908  .00001594  00000+0  23813-3 0  9991
2 63732  51.9008 284.1538 0000556 107.0505 253.0518 14.79920043 65645
KUIPER-00018            
1 63733U 25088K   26193.58523785  .00000053  00000+0  36003-4 0  9992
2 63733  51.9039 268.3152 0000443  85.3601 274.7412 14.79931209 65982
KUIPER-00019            
1 63734U 25088L   26193.67943605  .00000637  00000+0  11252-3 0  9996
2 63734  51.9007 266.6572 0000536  80.9918 279.1105 14.79927421 66014
KUIPER-00020            
1 63735U 25088M   26193.51496113  .00000380  00000+0  78893-4 0  9997
2 63735  51.9017 271.1284 0000595  80.2451 279.8579 14.79898486 66141
KUIPER-00021            
1 63736U 25088N   26193.54877221  .00000516  00000+0  96699-4 0  9999
2 63736  51.9004 270.9340 0000374  69.6504 290.4499 14.79937597 65981
KUIPER-00023            
1 63737U 25088P   26193.51219418 -.00004770  00000+0 -59723-3 0  9999
2 63737  51.8993 273.5849 0002453 121.8107 238.3094 14.79923416 66248
KUIPER-00024            
1 63738U 25088Q   26193.18815571  .00000946  00000+0  15308-3 0  9995
2 63738  51.9030 262.6169 0000536  99.3029 260.7994 14.79934563 66498
KUIPER-00025            
1 63739U 25088R   26193.61902897  .00000698  00000+0  12056-3 0  9993
2 63739  51.9031 268.1925 0000368  55.2955 304.8042 14.79926752 66319
