{"fetched_at":"2026-07-13T07:47:52.862Z","source":"https://celestrak.org/NORAD/elements/gp.php?GROUP=kuiper&FORMAT=JSON","constellation":"kuiper","records":[{"OBJECT_NAME":"KUIPER-00008","OBJECT_ID":"2025-088A","EPOCH":"2026-07-12T04:38:41.911296","CLASSIFICATION_TYPE":"U","MEAN_MOTION":14.79929524,"ECCENTRICITY":0.0000682,"INCLINATION":51.9009,"RA_OF_ASC_NODE":257.4537,"ARG_OF_PERICENTER":115.2596,"MEAN_ANOMALY":244.8437,"EPHEMERIS_TYPE":0,"NORAD_CAT_ID":63724,"ELEMENT_SET_NO":999,"REV_AT_EPOCH":6648,"BSTAR":0.00012808,"MEAN_MOTION_DOT":0.00000755,"MEAN_MOTION_DDOT":0},{"OBJECT_NAME":"KUIPER-00009","OBJECT_ID":"2025-088B","EPOCH":"2026-07-12T09:51:54.075456","CLASSIFICATION_TYPE":"U","MEAN_MOTION":14.79931642,"ECCENTRICITY":0.00004392,"INCLINATION":51.9022,"RA_OF_ASC_NODE":274.1233,"ARG_OF_PERICENTER":95.6781,"MEAN_ANOMALY":264.4231,"EPHEMERIS_TYPE":0,"NORAD_CAT_ID":63725,"ELEMENT_SET_NO":999,"REV_AT_EPOCH":6626,"BSTAR":0.00027201647,"MEAN_MOTION_DOT":0.00001853,"MEAN_MOTION_DDOT":0},{"OBJECT_NAME":"KUIPER-00010","OBJECT_ID":"2025-088C","EPOCH":"2026-07-12T15:18:34.109856","CLASSIFICATION_TYPE":"U","MEAN_MOTION":14.79930025,"ECCENTRICITY":0.0000435,"INCLINATION":51.9016,"RA_OF_ASC_NODE":250.5916,"ARG_OF_PERICENTER":64.099,"MEAN_ANOMALY":296.0017,"EPHEMERIS_TYPE":0,"NORAD_CAT_ID":63726,"ELEMENT_SET_NO":999,"REV_AT_EPOCH":6623,"BSTAR":0.000071955,"MEAN_MOTION_DOT":0.00000327,"MEAN_MOTION_DDOT":0},{"OBJECT_NAME":"KUIPER-00011","OBJECT_ID":"2025-088D","EPOCH":"2026-07-12T14:18:17.049888","CLASSIFICATION_TYPE":"U","MEAN_MOTION":14.79930793,"ECCENTRICITY":0.0000767,"INCLINATION":51.905,"RA_OF_ASC_NODE":258.3274,"ARG_OF_PERICENTER":313.2819,"MEAN_ANOMALY":46.8079,"EPHEMERIS_TYPE":0,"NORAD_CAT_ID":63727,"ELEMENT_SET_NO":999,"REV_AT_EPOCH":6625,"BSTAR":0.000078941,"MEAN_MOTION_DOT":0.00000381,"MEAN_MOTION_DDOT":0},{"OBJECT_NAME":"KUIPER-00012","OBJECT_ID":"2025-088E","EPOCH":"2026-07-12T15:30:12.223584","CLASSIFICATION_TYPE":"U","MEAN_MOTION":14.79933606,"ECCENTRICITY":0.0000427,"INCLINATION":51.9008,"RA_OF_ASC_NODE":243.0391,"ARG_OF_PERICENTER":94.3989,"MEAN_ANOMALY":265.7022,"EPHEMERIS_TYPE":0,"NORAD_CAT_ID":63728,"ELEMENT_SET_NO":999,"REV_AT_EPOCH":6642,"BSTAR":0.00009555,"MEAN_MOTION_DOT":0.00000507,"MEAN_MOTION_DDOT":0},{"OBJECT_NAME":"KUIPER-00013","OBJECT_ID":"2025-088F","EPOCH":"2026-07-12T15:28:21.965088","CLASSIFICATION_TYPE":"U","MEAN_MOTION":14.79929952,"ECCENTRICITY":0.0000478,"INCLINATION":51.9017,"RA_OF_ASC_NODE":275.5643,"ARG_OF_PERICENTER":104.7931,"MEAN_ANOMALY":255.3085,"EPHEMERIS_TYPE":0,"NORAD_CAT_ID":63729,"ELEMENT_SET_NO":999,"REV_AT_EPOCH":6607,"BSTAR":0.000071541,"MEAN_MOTION_DOT":0.00000324,"MEAN_MOTION_DDOT":0},{"OBJECT_NAME":"KUIPER-00014","OBJECT_ID":"2025-088G","EPOCH":"2026-07-12T13:02:27.810816","CLASSIFICATION_TYPE":"U","MEAN_MOTION":14.7992735,"ECCENTRICITY":0.000051,"INCLINATION":51.902,"RA_OF_ASC_NODE":275.9553,"ARG_OF_PERICENTER":96.4445,"MEAN_ANOMALY":263.6576,"EPHEMERIS_TYPE":0,"NORAD_CAT_ID":63730,"ELEMENT_SET_NO":999,"REV_AT_EPOCH":6587,"BSTAR":0.000080333,"MEAN_MOTION_DOT":0.00000391,"MEAN_MOTION_DDOT":0},{"OBJECT_NAME":"KUIPER-00015","OBJECT_ID":"2025-088H","EPOCH":"2026-07-12T13:35:33.765792","CLASSIFICATION_TYPE":"U","MEAN_MOTION":14.79939784,"ECCENTRICITY":0.0000365,"INCLINATION":51.9007,"RA_OF_ASC_NODE":285.9162,"ARG_OF_PERICENTER":103.9387,"MEAN_ANOMALY":256.1615,"EPHEMERIS_TYPE":0,"NORAD_CAT_ID":63731,"ELEMENT_SET_NO":999,"REV_AT_EPOCH":6619,"BSTAR":0.000055419,"MEAN_MOTION_DOT":0.00000202,"MEAN_MOTION_DDOT":0},{"OBJECT_NAME":"KUIPER-00016","OBJECT_ID":"2025-088J","EPOCH":"2026-07-11T06:10:59.152512","CLASSIFICATION_TYPE":"U","MEAN_MOTION":14.79920043,"ECCENTRICITY":0.00005562,"INCLINATION":51.9008,"RA_OF_ASC_NODE":284.1538,"ARG_OF_PERICENTER":107.0505,"MEAN_ANOMALY":253.0518,"EPHEMERIS_TYPE":0,"NORAD_CAT_ID":63732,"ELEMENT_SET_NO":999,"REV_AT_EPOCH":6564,"BSTAR":0.00023813184,"MEAN_MOTION_DOT":0.00001594,"MEAN_MOTION_DDOT":0},{"OBJECT_NAME":"KUIPER-00018","OBJECT_ID":"2025-088K","EPOCH":"2026-07-12T14:02:44.550240","CLASSIFICATION_TYPE":"U","MEAN_MOTION":14.79931209,"ECCENTRICITY":0.0000443,"INCLINATION":51.9039,"RA_OF_ASC_NODE":268.3152,"ARG_OF_PERICENTER":85.3601,"MEAN_ANOMALY":274.7412,"EPHEMERIS_TYPE":0,"NORAD_CAT_ID":63733,"ELEMENT_SET_NO":999,"REV_AT_EPOCH":6598,"BSTAR":0.000036003,"MEAN_MOTION_DOT":5.3e-7,"MEAN_MOTION_DDOT":0},{"OBJECT_NAME":"KUIPER-00019","OBJECT_ID":"2025-088L","EPOCH":"2026-07-12T16:18:23.274720","CLASSIFICATION_TYPE":"U","MEAN_MOTION":14.79927421,"ECCENTRICITY":0.0000536,"INCLINATION":51.9007,"RA_OF_ASC_NODE":266.6572,"ARG_OF_PERICENTER":80.9918,"MEAN_ANOMALY":279.1105,"EPHEMERIS_TYPE":0,"NORAD_CAT_ID":63734,"ELEMENT_SET_NO":999,"REV_AT_EPOCH":6601,"BSTAR":0.00011252,"MEAN_MOTION_DOT":0.00000637,"MEAN_MOTION_DDOT":0},{"OBJECT_NAME":"KUIPER-00020","OBJECT_ID":"2025-088M","EPOCH":"2026-07-12T12:21:32.641632","CLASSIFICATION_TYPE":"U","MEAN_MOTION":14.79898486,"ECCENTRICITY":0.00005955,"INCLINATION":51.9017,"RA_OF_ASC_NODE":271.1284,"ARG_OF_PERICENTER":80.2451,"MEAN_ANOMALY":279.8579,"EPHEMERIS_TYPE":0,"NORAD_CAT_ID":63735,"ELEMENT_SET_NO":999,"REV_AT_EPOCH":6614,"BSTAR":0.000078893374,"MEAN_MOTION_DOT":0.0000038,"MEAN_MOTION_DDOT":0},{"OBJECT_NAME":"KUIPER-00021","OBJECT_ID":"2025-088N","EPOCH":"2026-07-12T13:10:13.918944","CLASSIFICATION_TYPE":"U","MEAN_MOTION":14.79937597,"ECCENTRICITY":0.0000374,"INCLINATION":51.9004,"RA_OF_ASC_NODE":270.934,"ARG_OF_PERICENTER":69.6504,"MEAN_ANOMALY":290.4499,"EPHEMERIS_TYPE":0,"NORAD_CAT_ID":63736,"ELEMENT_SET_NO":999,"REV_AT_EPOCH":6598,"BSTAR":0.000096699,"MEAN_MOTION_DOT":0.00000516,"MEAN_MOTION_DDOT":0},{"OBJECT_NAME":"KUIPER-00023","OBJECT_ID":"2025-088P","EPOCH":"2026-07-12T12:17:33.577152","CLASSIFICATION_TYPE":"U","MEAN_MOTION":14.79923416,"ECCENTRICITY":0.00024531,"INCLINATION":51.8993,"RA_OF_ASC_NODE":273.5849,"ARG_OF_PERICENTER":121.8107,"MEAN_ANOMALY":238.3094,"EPHEMERIS_TYPE":0,"NORAD_CAT_ID":63737,"ELEMENT_SET_NO":999,"REV_AT_EPOCH":6624,"BSTAR":-0.00059722895,"MEAN_MOTION_DOT":-0.0000477,"MEAN_MOTION_DDOT":0},{"OBJECT_NAME":"KUIPER-00024","OBJECT_ID":"2025-088Q","EPOCH":"2026-07-12T04:30:56.653344","CLASSIFICATION_TYPE":"U","MEAN_MOTION":14.79934563,"ECCENTRICITY":0.0000536,"INCLINATION":51.903,"RA_OF_ASC_NODE":262.6169,"ARG_OF_PERICENTER":99.3029,"MEAN_ANOMALY":260.7994,"EPHEMERIS_TYPE":0,"NORAD_CAT_ID":63738,"ELEMENT_SET_NO":999,"REV_AT_EPOCH":6649,"BSTAR":0.00015307663,"MEAN_MOTION_DOT":0.00000946,"MEAN_MOTION_DDOT":0},{"OBJECT_NAME":"KUIPER-00025","OBJECT_ID":"2025-088R","EPOCH":"2026-07-12T14:51:24.103008","CLASSIFICATION_TYPE":"U","MEAN_MOTION":14.79926752,"ECCENTRICITY":0.0000368,"INCLINATION":51.9031,"RA_OF_ASC_NODE":268.1925,"ARG_OF_PERICENTER":55.2955,"MEAN_ANOMALY":304.8042,"EPHEMERIS_TYPE":0,"NORAD_CAT_ID":63739,"ELEMENT_SET_NO":999,"REV_AT_EPOCH":6631,"BSTAR":0.00012056,"MEAN_MOTION_DOT":0.00000698,"MEAN_MOTION_DDOT":0}]}
